SL-16 R/B               
1 26070U 00006B   21304.98789013 -.00000261  00000-0 -10925-3 0  9997
2 26070  71.0025 199.3279 0014258  79.8370 280.4360 14.15471190123581
MTI                     
1 26102U 00014A   21305.51016204  .00036972  00000-0  36647-3 0  9992
2 26102  97.4545 219.6318 0007559 143.1673 217.0772 15.65697843202754
TITAN 4B R/B            
1 26474U 00047B   21305.52928257  .00000594  00000-0  61710-4 0  9992
2 26474  67.9919 133.4019 0055790   0.2583 359.8578 14.96273831154347
ENVISAT                 
1 27386U 02009A   21305.47103904  .00000110  00000-0  49735-4 0  9990
2 27386  98.1612 292.6081 0001240  91.5729  80.6058 14.38051178 30696
IDEFIX & ARIANE 42P R/B 
1 27422U 02021B   21305.10405172  .00000085  00000-0  49856-4 0  9992
2 27422  98.4191 253.3410 0011908 184.9903 175.1163 14.29338391 16837
AQUA                    
1 27424U 02022A   21305.60927987  .00000325  00000-0  82151-4 0  9995
2 27424  98.2214 245.0310 0000818 113.1162  60.0599 14.57098314 37005
CZ-4B R/B               
1 27432U 02024C   21305.50896644  .00000002  00000-0  25108-4 0  9991
2 27432  99.0813 322.1775 0050119 199.0841 324.3926 14.14116684  4600
MIDORI II (ADEOS-II)    
1 27597U 02056A   21305.54451760  .00000122  00000-0  67307-4 0  9998
2 27597  98.5784 248.1927 0001046  26.8704 333.2531 14.27527025983447
H-2A R/B                
1 27601U 02056E   21305.50865588  .00000011  00000-0  18562-4 0  9993
2 27601  98.1843 320.0914 0071331 220.5337 265.4118 14.32022423986549
CZ-4B R/B               
1 28059U 03049C   21305.53169897  .00000158  00000-0  49653-4 0  9994
2 28059  98.4994 234.0270 0050924  44.7547 315.7740 14.52679974955727
CZ-2C R/B               
1 28222U 04012C   21305.39665583  .00001877  00000-0  11296-3 0  9994
2 28222  97.7453 277.7194 0047771 112.2216  46.3483 15.11167593961778
SL-16 R/B               
1 28353U 04021B   21305.32216584  .00000260  00000-0  16126-3 0  9997
2 28353  71.0001 326.7544 0007094 285.1329  74.9008 14.14246828898095
CZ-4B R/B               
1 28415U 04035C   21305.52982053  .00001416  00000-0  95147-4 0  9999
2 28415  97.5496 345.6491 0052588  79.5321 281.1827 15.07277441939254
CZ-2C R/B               
1 28480U 04046B   21305.25862787  .00000063  00000-0  38581-4 0  9990
2 28480  98.0529 306.2409 0141858 177.9243 193.2081 14.25767692881922
ARIANE 5 R/B            
1 28499U 04049H   21304.94384965  .00000323  00000-0  46757-4 0  9998
2 28499  98.0808  54.9788 0093243  92.7060  43.3119 14.80179128910274
CZ-2D R/B               
1 28738U 05024B   21305.45438155  .00001659  00000-0  98411-4 0  9993
2 28738  97.3583 316.6317 0010173 244.5096 115.5083 15.12648234897276
SUZAKU (ASTRO-EII)      
1 28773U 05025A   21305.54448656  .00005031  00000-0  23056-3 0  9990
2 28773  31.3824 349.0483 0004516 225.2597 134.7683 15.18920895900323
ALOS (DAICHI)           
1 28931U 06002A   21304.94621344  .00000342  00000-0  75476-4 0  9996
2 28931  97.9041 273.8287 0001429  19.3297 340.7976 14.62908177841014
H-2A R/B                
1 28932U 06002B   21305.56334149  .00000931  00000-0  89781-4 0  9998
2 28932  98.3203 330.3931 0089097 118.3885  40.4563 14.92739710856037
AKARI (ASTRO-F)         
1 28939U 06005A   21305.54982386  .00011517  00000-0  26979-3 0  9999
2 28939  98.2313 345.5500 0083723   3.9253 356.2628 15.38632093857974
RESURS-DK 1             
1 29228U 06021A   21305.53734346  .00000521  00000-0  46154-4 0  9990
2 29228  69.9363 349.6188 0002963   7.1319 352.9883 15.02790312848133
GENESIS 1               
1 29252U 06029A   21305.44540378  .00002620  00000-0  12968-3 0  9992
2 29252  64.5204  98.7334 0055606 297.5847  61.9635 15.19008142844323
CZ-4B R/B               
1 29507U 06046C   21305.54423482  .00000974  00000-0  79237-4 0  9994
2 29507  97.7644 331.2877 0045848 276.3949  83.2055 15.01206221820678
CZ-2C R/B               
1 31114U 07010B   21305.44086528  .00000043  00000-0  38746-4 0  9995
2 31114  98.2302 129.5270 0058679 242.6834 116.8362 14.19377437754218
COSMO-SKYMED 1          
1 31598U 07023A   21305.48634057  .00000524  00000-0  72421-4 0  9997
2 31598  97.8919 127.4673 0001574  87.6969 272.4433 14.82158408779192
GENESIS 2               
1 31789U 07028A   21305.56019839  .00001794  00000-0  97296-4 0  9995
2 31789  64.4909 141.0122 0021404   3.4209 356.7056 15.18045966791297
COSMOS 2428             
1 31792U 07029A   21305.45349597  .00000330  00000-0  20483-3 0  9993
2 31792  70.9174 298.2137 0006773  16.1969 343.9367 14.12387646739656
SL-16 R/B               
1 31793U 07029B   21305.41098375  .00000278  00000-0  16998-3 0  9992
2 31793  70.9750 271.9154 0002547 262.9394 268.2278 14.14451134740616
KORONAS-FOTON           
1 33504U 09003A   21304.84674031  .00001456  00000-0  73497-4 0  9990
2 33504  82.4405  83.7358 0018499 348.3249  11.7551 15.16202869703312
H-2A R/B                
1 38341U 12025E   21305.31096817  .00000520  00000-0  67864-4 0  9997
2 38341  98.5235 140.1743 0056301  60.5627 300.1188 14.84310462511803
CUSAT 2 & FALCON 9 R/B  
1 39271U 13055G   21305.39621531  .00014897  00000-0  33839-3 0  9995
2 39271  80.9616  84.4352 0559510  93.5002 273.0328 14.55372012423536
CZ-2C R/B               
1 39364U 13059B   21305.25159877  .00005000  00000-0  17662-3 0  9998
2 39364  97.1968   1.3845 0047468  67.1933 293.4311 15.28561809445322
SL-4 R/B                
1 39679U 14021B   21305.38504772  .00002526  00000-0  13650-3 0  9992
2 39679  51.6156 296.7559 0168485 246.0937 112.2304 15.07337495414709
ALOS-2                  
1 39766U 14029A   21305.48216062 -.00000018  00000-0  44439-5 0  9996
2 39766  97.9226  40.8810 0001584  92.0432 268.0952 14.79471638401925
CZ-2C R/B               
1 40306U 14071B   21305.05151467  .00019960  00000-0  34975-3 0  9992
2 40306  97.3882 265.6879 0014858 129.8776 230.3785 15.50496944391403
SL-27 R/B               
1 40354U 14084B   21305.57046485  .00004030  00000-0  94747-4 0  9995
2 40354  74.7387  68.3554 0036351   1.6553 358.4773 15.41602498385466
YAOGAN 29               
1 41038U 15069A   21305.53745775  .00000103  00000-0  20468-4 0  9999
2 41038  98.0479 299.8791 0002299  76.1346 284.0119 14.80536263320568
ASTRO-H (HITOMI)        
1 41337U 16012A   21305.41693186  .00000807  00000-0  58245-4 0  9990
2 41337  31.0055  66.5562 0012346 351.9369   8.1066 14.98937442312879
HXMT (HUIYAN)           
1 42758U 17034A   21305.50354135  .00001057  00000-0  78452-4 0  9991
2 42758  43.0168 160.7564 0009675 295.3899 140.0174 15.09408411241727
CZ-2C R/B               
1 43521U 18054D   21305.39340455  .00002596  00000-0  13903-3 0  9998
2 43521  35.1547 324.9622 0081906 227.6212 131.7547 15.11799362185136
AEOLUS                  
1 43600U 18066A   21305.27390882  .00077370  00000-0  29826-3 0  9998
2 43600  96.7144 309.9630 0006413 109.3326 250.8641 15.87073821184948
SAOCOM 1A               
1 43641U 18076A   21305.42717849  .00000108  00000-0  20171-4 0  9997
2 43641  97.8873 130.3965 0001481  81.3278 278.8114 14.82153836165950
SAOCOM 1B               
1 46265U 20059A   21305.45835657 -.00001367  00000-0 -16525-3 0  9994
2 46265  97.8895 129.4994 0001676  76.6658 283.4798 14.82136010 63351
2020-063G               
1 46395U 20063G   21305.53346416  .00136677  19216-4  23686-3 0  9992
2 46395  50.1979 307.7302 0007072  19.7291 340.3972 16.01899067 67139
SL-4 R/B                
1 47547U 21008B   21305.50377435  .00197860  50391-5  56577-3 0  9990
2 47547  67.1327 340.9176 0298179 196.8185 162.2929 15.47417868 41354
TIANHE                  
1 48274U 21035A   21305.76282846  .00013271  00000-0  15718-3 0  9999
2 48274  41.4689 164.1947 0007190 298.0416 148.5590 15.60982749 29215
